{
  "type": "FeatureCollection",
  "features": [
    {
      "type": "Feature",
      "properties": {
        "norad_id": 36684,
        "name": "FENGYUN 1C DEB",
        "group": "fengyun-1c-debris",
        "lat": 65.47384588278479,
        "lon": 57.05927771490336,
        "alt_km": 562.0001978817963,
        "timestamp": "2025-12-12T09:49:09.020353+00:00",
        "meta_object_name": "FENGYUN 1C DEB",
        "meta_object_id": "1999-025DZE",
        "meta_epoch": "2025-12-11T17:28:13.774944",
        "meta_mean_motion": 14.96222667,
        "meta_eccentricity": 0.00195809,
        "meta_inclination": 99.4548,
        "meta_ra_of_asc_node": 77.6594,
        "meta_arg_of_pericenter": 113.0891,
        "meta_mean_anomaly": 247.2391,
        "meta_ephemeris_type": 0,
        "meta_classification_type": "U",
        "meta_norad_cat_id": 36684,
        "meta_element_set_no": 999,
        "meta_rev_at_epoch": 65886,
        "meta_bstar": 0.0059551386,
        "meta_mean_motion_dot": 0.00067989,
        "meta_mean_motion_ddot": 0,
        "tle_line1": "1 36684U 99025DZE 25345.72793721  .00067989  00000+0  59551-2 0  9994",
        "tle_line2": "2 36684  99.4548  77.6594 0019580 113.0891 247.2391 14.96222667658868"
      },
      "geometry": {
        "type": "Point",
        "coordinates": [
          57.05927771490336,
          65.47384588278479
        ]
      }
    },
    {
      "type": "Feature",
      "properties": {
        "norad_id": 36686,
        "name": "FENGYUN 1C DEB",
        "group": "fengyun-1c-debris",
        "lat": -29.29203121955215,
        "lon": -177.12443487956045,
        "alt_km": 635.5916636312213,
        "timestamp": "2025-12-12T09:49:09.020364+00:00",
        "meta_object_name": "FENGYUN 1C DEB",
        "meta_object_id": "1999-025DZG",
        "meta_epoch": "2025-12-08T06:47:07.320768",
        "meta_mean_motion": 14.77124194,
        "meta_eccentricity": 0.01052891,
        "meta_inclination": 99.0012,
        "meta_ra_of_asc_node": 173.1732,
        "meta_arg_of_pericenter": 67.3219,
        "meta_mean_anomaly": 293.9079,
        "meta_ephemeris_type": 0,
        "meta_classification_type": "U",
        "meta_norad_cat_id": 36686,
        "meta_element_set_no": 999,
        "meta_rev_at_epoch": 65786,
        "meta_bstar": 0.0010962616,
        "meta_mean_motion_dot": 8.434e-05,
        "meta_mean_motion_ddot": 0,
        "tle_line1": "1 36686U 99025DZG 25342.28272362  .00008434  00000+0  10963-2 0  9991",
        "tle_line2": "2 36686  99.0012 173.1732 0105289  67.3219 293.9079 14.77124194657860"
      },
      "geometry": {
        "type": "Point",
        "coordinates": [
          -177.12443487956045,
          -29.29203121955215
        ]
      }
    },
    {
      "type": "Feature",
      "properties": {
        "norad_id": 36687,
        "name": "FENGYUN 1C DEB",
        "group": "fengyun-1c-debris",
        "lat": -35.50600321704501,
        "lon": -113.42750444267014,
        "alt_km": 842.3224568273154,
        "timestamp": "2025-12-12T09:49:09.020374+00:00",
        "meta_object_name": "FENGYUN 1C DEB",
        "meta_object_id": "1999-025DZH",
        "meta_epoch": "2025-12-09T12:23:51.138240",
        "meta_mean_motion": 14.04528107,
        "meta_eccentricity": 0.00903007,
        "meta_inclination": 98.7162,
        "meta_ra_of_asc_node": 70.0789,
        "meta_arg_of_pericenter": 274.4984,
        "meta_mean_anomaly": 84.5872,
        "meta_ephemeris_type": 0,
        "meta_classification_type": "U",
        "meta_norad_cat_id": 36687,
        "meta_element_set_no": 999,
        "meta_rev_at_epoch": 62677,
        "meta_bstar": 0.00041265981,
        "meta_mean_motion_dot": 6.4e-06,
        "meta_mean_motion_ddot": 0,
        "tle_line1": "1 36687U 99025DZH 25343.51656410  .00000640  00000+0  41266-3 0  9991",
        "tle_line2": "2 36687  98.7162  70.0789 0090300 274.4984  84.5872 14.04528107626770"
      },
      "geometry": {
        "type": "Point",
        "coordinates": [
          -113.42750444267014,
          -35.50600321704501
        ]
      }
    },
    {
      "type": "Feature",
      "properties": {
        "norad_id": 36689,
        "name": "FENGYUN 1C DEB",
        "group": "fengyun-1c-debris",
        "lat": 53.21875605724464,
        "lon": -131.22345522498216,
        "alt_km": 1078.1219543689058,
        "timestamp": "2025-12-12T09:49:09.020385+00:00",
        "meta_object_name": "FENGYUN 1C DEB",
        "meta_object_id": "1999-025DZK",
        "meta_epoch": "2025-11-28T10:04:14.213280",
        "meta_mean_motion": 13.74189275,
        "meta_eccentricity": 0.03131537,
        "meta_inclination": 98.4796,
        "meta_ra_of_asc_node": 227.8431,
        "meta_arg_of_pericenter": 334.7216,
        "meta_mean_anomaly": 23.8887,
        "meta_ephemeris_type": 0,
        "meta_classification_type": "U",
        "meta_norad_cat_id": 36689,
        "meta_element_set_no": 999,
        "meta_rev_at_epoch": 58016,
        "meta_bstar": 0.0027905602,
        "meta_mean_motion_dot": 3.71e-05,
        "meta_mean_motion_ddot": 0,
        "tle_line1": "1 36689U 99025DZK 25332.41960895  .00003710  00000+0  27906-2 0  9990",
        "tle_line2": "2 36689  98.4796 227.8431 0313153 334.7216  23.8887 13.74189275580169"
      },
      "geometry": {
        "type": "Point",
        "coordinates": [
          -131.22345522498216,
          53.21875605724464
        ]
      }
    },
    {
      "type": "Feature",
      "properties": {
        "norad_id": 36691,
        "name": "FENGYUN 1C DEB",
        "group": "fengyun-1c-debris",
        "lat": -18.04477403568588,
        "lon": 163.70765566734667,
        "alt_km": 800.2207782462801,
        "timestamp": "2025-12-12T09:49:09.020395+00:00",
        "meta_object_name": "FENGYUN 1C DEB",
        "meta_object_id": "1999-025DZM",
        "meta_epoch": "2025-12-08T17:50:07.073952",
        "meta_mean_motion": 14.07105067,
        "meta_eccentricity": 0.01290803,
        "meta_inclination": 98.6374,
        "meta_ra_of_asc_node": 343.0423,
        "meta_arg_of_pericenter": 246.8073,
        "meta_mean_anomaly": 111.9457,
        "meta_ephemeris_type": 0,
        "meta_classification_type": "U",
        "meta_norad_cat_id": 36691,
        "meta_element_set_no": 999,
        "meta_rev_at_epoch": 59553,
        "meta_bstar": 0.0032098608,
        "meta_mean_motion_dot": 5.753e-05,
        "meta_mean_motion_ddot": 0,
        "tle_line1": "1 36691U 99025DZM 25342.74313743  .00005753  00000+0  32099-2 0  9992",
        "tle_line2": "2 36691  98.6374 343.0423 0129080 246.8073 111.9457 14.07105067595539"
      },
      "geometry": {
        "type": "Point",
        "coordinates": [
          163.70765566734667,
          -18.04477403568588
        ]
      }
    },
    {
      "type": "Feature",
      "properties": {
        "norad_id": 36692,
        "name": "FENGYUN 1C DEB",
        "group": "fengyun-1c-debris",
        "lat": -36.59748946207083,
        "lon": 64.92633584619317,
        "alt_km": 1000.2967948379373,
        "timestamp": "2025-12-12T09:49:09.020406+00:00",
        "meta_object_name": "FENGYUN 1C DEB",
        "meta_object_id": "1999-025DZN",
        "meta_epoch": "2025-12-04T12:56:52.897632",
        "meta_mean_motion": 13.93448865,
        "meta_eccentricity": 0.0115856,
        "meta_inclination": 99.9932,
        "meta_ra_of_asc_node": 243.9547,
        "meta_arg_of_pericenter": 34.8482,
        "meta_mean_anomaly": 326.0192,
        "meta_ephemeris_type": 0,
        "meta_classification_type": "U",
        "meta_norad_cat_id": 36692,
        "meta_element_set_no": 999,
        "meta_rev_at_epoch": 59691,
        "meta_bstar": 0.0009556,
        "meta_mean_motion_dot": 1.272e-05,
        "meta_mean_motion_ddot": 0,
        "tle_line1": "1 36692U 99025DZN 25338.53950113  .00001272  00000+0  95560-3 0  9998",
        "tle_line2": "2 36692  99.9932 243.9547 0115856  34.8482 326.0192 13.93448865596912"
      },
      "geometry": {
        "type": "Point",
        "coordinates": [
          64.92633584619317,
          -36.59748946207083
        ]
      }
    },
    {
      "type": "Feature",
      "properties": {
        "norad_id": 36695,
        "name": "FENGYUN 1C DEB",
        "group": "fengyun-1c-debris",
        "lat": 33.21518001242587,
        "lon": -37.67463581529129,
        "alt_km": 763.7656672074991,
        "timestamp": "2025-12-12T09:49:09.020416+00:00",
        "meta_object_name": "FENGYUN 1C DEB",
        "meta_object_id": "1999-025DZR",
        "meta_epoch": "2025-12-09T16:47:24.081792",
        "meta_mean_motion": 14.43738947,
        "meta_eccentricity": 0.02573024,
        "meta_inclination": 98.2214,
        "meta_ra_of_asc_node": 325.1368,
        "meta_arg_of_pericenter": 139.5563,
        "meta_mean_anomaly": 222.5073,
        "meta_ephemeris_type": 0,
        "meta_classification_type": "U",
        "meta_norad_cat_id": 36695,
        "meta_element_set_no": 999,
        "meta_rev_at_epoch": 89524,
        "meta_bstar": 0.00025681579,
        "meta_mean_motion_dot": 1.255e-05,
        "meta_mean_motion_ddot": 0,
        "tle_line1": "1 36695U 99025DZR 25343.69958428  .00001255  00000+0  25682-3 0  9990",
        "tle_line2": "2 36695  98.2214 325.1368 0257302 139.5563 222.5073 14.43738947895245"
      },
      "geometry": {
        "type": "Point",
        "coordinates": [
          -37.67463581529129,
          33.21518001242587
        ]
      }
    }
  ]
}